NAVSTAR 77 (USA 289)    
1 43873U 18109A   24280.02483799  .00000043  00000+0  00000+0 0  9997
2 43873  55.3409 116.6467 0031046 191.7707 346.0818  2.00560573 42655
